API VERSION: 1.2
API SOURCE: NASA/JPL Horizons API



*******************************************************************************
Ephemeris / API_USER Wed Apr 15 12:11:05 2026 Pasadena, USA      / Horizons
*******************************************************************************
Target body name: Mercury (199)                   {source: DE441}
Center body name: Sun (10)                        {source: DE441}
Center-site name: BODY CENTER
*******************************************************************************
Start time      : A.D. 2400-Jan-01 00:00:00.0000 TDB
Stop  time      : A.D. 2499-Dec-17 00:00:00.0000 TDB
Step-size       : 43200 minutes
*******************************************************************************
Center geodetic : 0.0, 0.0, 0.0                   {E-lon(deg),Lat(deg),Alt(km)}
Center cylindric: 0.0, 0.0, 0.0                   {E-lon(deg),Dxy(km),Dz(km)}
Center radii    : 695700.0, 695700.0, 695700.0 km {Equator_a, b, pole_c}
Output units    : AU-D
Calendar mode   : Mixed Julian/Gregorian
Output type     : GEOMETRIC cartesian states
Output format   : 3 (position, velocity, LT, range, range-rate)
Reference frame : Ecliptic of J2000.0
*******************************************************************************
            JDTDB,            Calendar Date (TDB),                      X,                      Y,                      Z,                     VX,                     VY,                     VZ,                     LT,                     RG,                     RR,
**************************************************************************************************************************************************************************************************************************************************************************
$$SOE
2600341.500000000, A.D. 2407-May-24 00:00:00.0000,  2.134715765354623E-01,  2.316800923810533E-01, -3.202345166568333E-04, -2.628040125431942E-02,  2.017829727848672E-02,  4.043522898147523E-03,  1.819479697502533E-03,  3.150331438823141E-01, -2.972715106200611E-03,
2600371.500000000, A.D. 2407-Jun-23 00:00:00.0000, -3.872722981985186E-01, -1.577448279265528E-01,  2.216841443836680E-02,  4.782498891232848E-03, -2.489648465587482E-02, -2.480897500550824E-03,  2.418519953615722E-03,  4.187537489841151E-01,  4.824230928575485E-03,
2600401.500000000, A.D. 2407-Jul-23 00:00:00.0000,  1.473716466098753E-01, -4.221949153624338E-01, -4.808389088611813E-02,  2.091203964003034E-02,  1.063422763603249E-02, -1.023051781697716E-03,  2.597564711381800E-03,  4.497543877997708E-01, -3.020943981051757E-03,
2600431.500000000, A.D. 2407-Aug-22 00:00:00.0000,  1.562280760821685E-01,  2.678020448602789E-01,  7.843736314826351E-03, -2.993247497334436E-02,  1.523524626577014E-02,  3.968461203719955E-03,  1.791217873416611E-03,  3.101397607322531E-01, -1.822195609321972E-03,
2600461.500000000, A.D. 2407-Sep-21 00:00:00.0000, -3.744467899858042E-01, -2.068855316692950E-01,  1.696410913639287E-02,  7.800593902872672E-03, -2.345412510951141E-02, -2.636153223665296E-03,  2.472703055200959E-03,  4.281352622052420E-01,  4.406765739176506E-03,
2600491.500000000, A.D. 2407-Oct-21 00:00:00.0000,  1.887383528616122E-01, -3.977800599601521E-01, -4.982993386059341E-02,  1.977526843286384E-02,  1.340450865243736E-02, -6.921266215576156E-04,  2.559109716022734E-03,  4.430961117538359E-01, -3.532430095396866E-03,
2600521.500000000, A.D. 2407-Nov-20 00:00:00.0000,  9.264861795957169E-02,  2.930141942408682E-01,  1.568545524715061E-02, -3.248031525146541E-02,  9.487049105718232E-03,  3.727015225723150E-03,  1.777200454171773E-03,  3.077127198260649E-01, -5.555712453875663E-04,
2600551.500000000, A.D. 2407-Dec-20 00:00:00.0000, -3.557975593757671E-01, -2.528178272043907E-01,  1.149538405462181E-02,  1.051790183261328E-02, -2.174568087542313E-02, -2.742234948672730E-03,  2.521732452274888E-03,  4.366244391518469E-01,  3.948310698440535E-03,
2600581.500000000, A.D. 2408-Jan-19 00:00:00.0000,  2.274525025893983E-01, -3.677994545063507E-01, -5.087718664682394E-02,  1.829764247997535E-02,  1.611895766233724E-02, -3.348510929107130E-04,  2.514835823178161E-03,  4.354303248402035E-01, -4.018238695137522E-03,
2600611.500000000, A.D. 2408-Feb-18 00:00:00.0000,  2.524128009832230E-02,  3.060171130881567E-01,  2.287059081414199E-02, -3.370166257462313E-02,  3.282794543490374E-03,  3.327663614103215E-03,  1.778321950769224E-03,  3.079069009424758E-01,  7.470564525070729E-04,
2600641.500000000, A.D. 2408-Mar-19 00:00:00.0000, -3.319287439231775E-01, -2.950494582783817E-01,  5.856816513564496E-03,  1.293953506316380E-02, -1.981853467107332E-02, -2.803490421570609E-03,  2.565170158499849E-03,  4.441454448403793E-01,  3.458382354142996E-03,
2600671.500000000, A.D. 2408-Apr-18 00:00:00.0000,  2.628014524176534E-01, -3.323834546906678E-01, -5.117267797947475E-02,  1.645629783596660E-02,  1.874543738076304E-02,  4.817762999325146E-05,  2.465016713657143E-03,  4.268044134220291E-01, -4.471368106623828E-03,
2600701.500000000, A.D. 2408-May-18 00:00:00.0000, -4.325304246199135E-02,  3.063056059767668E-01,  2.910893782113898E-02, -3.352112185428472E-02, -2.969195660615684E-03,  2.797240081549462E-03,  1.794516655027716E-03,  3.107109270625803E-01,  2.001326198379457E-03,
2600731.500000000, A.D. 2408-Jun-17 00:00:00.0000, -3.034366867548672E-01, -3.331852086015617E-01,  1.360257607946507E-04,  1.507339218775255E-02, -1.771010282053479E-02, -2.823743230101775E-03,  2.602742475920017E-03,  4.506508899388141E-01,  2.943609003780290E-03,
2600761.500000000, A.D. 2408-Jul-17 00:00:00.0000,  2.940243383050966E-01, -2.917543394787175E-01, -5.066492752689445E-02,  1.422694392057815E-02,  2.124095800409043E-02,  4.556450655141360E-04,  2.410113772469803E-03,  4.172982638374118E-01, -4.881781931023930E-03,
2600791.500000000, A.D. 2408-Aug-16 00:00:00.0000, -1.100160912726254E-01,  2.941968575152955E-01,  3.417080689771945E-02, -3.202146497428000E-02, -8.867059722279380E-03,  2.176230842078795E-03,  1.824761972771638E-03,  3.159477414934675E-01,  3.128931597342974E-03,
2600821.500000000, A.D. 2408-Sep-15 00:00:00.0000, -2.708973218627872E-01, -3.668811965240697E-01, -5.586988892778917E-03,  1.692691153815276E-02, -1.545220633664894E-02, -2.806264644881506E-03,  2.634158040690102E-03,  4.560903263611843E-01,  2.410372359362961E-03,
2600851.500000000, A.D. 2408-Oct-15 00:00:00.0000,  3.203054363737803E-01, -2.462342658412206E-01, -4.930674455341048E-02,  1.158554362095674E-02,  2.355058434267734E-02,  8.852062629333375E-04,  2.350700110159130E-03,  4.070111071007989E-01, -5.237436626437046E-03,
2600881.500000000, A.D. 2408-Nov-14 00:00:00.0000, -1.725662077251462E-01,  2.707496688102257E-01,  3.791820057437842E-02, -2.941477216493431E-02, -1.409373597166901E-02,  1.509976863199725E-03,  1.867219530978427E-03,  3.232990398134272E-01,  4.074793860493607E-03,
2600911.500000000, A.D. 2408-Dec-14 00:00:00.0000, -2.348769838867126E-01, -3.958591029570933E-01, -1.123782521156199E-02,  1.850722959012734E-02, -1.307023894539607E-02, -2.753800101042089E-03,  2.659235269226914E-03,  4.604323138846787E-01,  1.863460700869300E-03,
2600941.500000000, A.D. 2409-Jan-13 00:00:00.0000,  3.407852337925635E-01, -1.962790476604712E-01, -4.705749049445501E-02,  8.511734733879098E-03,  2.560402566283431E-02,  1.332934748325514E-03,  2.287531437723082E-03,  3.960737905153400E-01, -5.523174920291629E-03,
2600971.500000000, A.D. 2409-Feb-12 00:00:00.0000, -2.289219575205782E-01,  2.375512593692106E-01,  4.030169463998774E-02, -2.598284122240823E-02, -1.845122681135086E-02,  8.403142593202743E-04,  1.919524515355954E-03,  3.323553671205058E-01,  4.810503922862129E-03,
2601001.500000000, A.D. 2409-Mar-14 00:00:00.0000, -1.959196837470997E-01, -4.198931971824401E-01, -1.674865654096812E-02,  1.982016240890482E-02, -1.058491929279373E-02, -2.668570394095582E-03,  2.677844077929581E-03,  4.636543292320070E-01,  1.307160493444458E-03,
2601031.500000000, A.D. 2409-Apr-13 00:00:00.0000,  3.545693557743310E-01, -1.424989897131874E-01, -4.388603764396019E-02,  4.992514175166275E-03,  2.731390942370227E-02,  1.792828033711863E-03,  2.221521233532502E-03,  3.846444779580103E-01, -5.721366633083510E-03,
2601061.500000000, A.D. 2409-May-13 00:00:00.0000, -2.777189788732195E-01,  1.964543774284102E-01,  4.134981027835108E-02, -2.201471580512446E-02, -2.186101340292097E-02,  1.999155485021975E-04,  1.979174661483282E-03,  3.426834697606869E-01,  5.332848668880355E-03,
2601091.500000000, A.D. 2409-Jun-12 00:00:00.0000, -1.545541498410209E-01, -4.387933332374274E-01, -2.205580921713047E-02,  2.087022877108623E-02, -8.012676857905274E-03, -2.552337799385201E-03,  2.689885478428159E-03,  4.657392330982169E-01,  7.442417835124019E-04,
2601121.500000000, A.D. 2409-Jul-12 00:00:00.0000,  3.607569979253604E-01, -8.566564451295622E-02, -3.977439508139533E-02,  1.028086986093442E-03,  2.857329182410369E-02,  2.256065315563705E-03,  2.153782215666439E-03,  3.729158305918772E-01, -5.809872739946050E-03,
2601151.500000000, A.D. 2409-Aug-11 00:00:00.0000, -3.181433332991110E-01,  1.493870694428864E-01,  4.114735358111209E-02, -1.776656940873873E-02, -2.433492064861477E-02, -3.889314317338124E-04,  2.043789239888809E-03,  3.538711372041128E-01,  5.654571460203272E-03,
2601181.500000000, A.D. 2409-Sep-10 00:00:00.0000, -1.113201155740647E-01, -4.523939925091444E-01, -2.709673774428032E-02,  2.165908438268499E-02, -5.368728751200103E-03, -2.406510680403001E-03,  2.695297258206421E-03,  4.666762537200380E-01,  1.776337361715322E-04,
2601211.500000000, A.D. 2409-Oct-10 00:00:00.0000,  3.584597841026926E-01, -2.682963208154718E-02, -3.472827878255799E-02, -3.354778639743569E-03,  2.925321986461661E-02,  2.709622292719052E-03,  2.085748298437093E-03,  3.611361229838124E-01, -5.763773654825881E-03,
